{
  "norad_id": 62273,
  "name": "STARLINK-11333 [DTC]",
  "history": [
    {
      "epoch": "2026-03-28T14:41:21.213312Z",
      "apogee_km": 357.16354793092523,
      "perigee_km": 354.7635145016002,
      "latitude_deg": -4.0219194294043286e-05,
      "longitude_deg": -103.40283257533596,
      "height_km": 356.18823388312927,
      "semi_major_axis_km": 6734.100531216262,
      "eccentricity": 0.0001782,
      "inclination_deg": 42.9991,
      "raan_deg": 302.9656,
      "arg_perigee_deg": 247.8609,
      "mean_anomaly_deg": 112.2069,
      "mean_motion_rev_day": 15.71025986
    }
  ]
}