{"fetched_at":"2026-03-29T16:36:15Z","count":15609,"tles":[{"name":"STARLINK-11333 [DTC]","line1":"1 62273U 24237G   26087.61205108  .00293341  00000+0  21927-2 0  9998","line2":"2 62273  42.9991 302.9656 0001782 247.8609 112.2069 15.71025986 76021","category":"Starlink"}]}